ORBCOMM FM115           
1 41186U 15081H   24344.84285060  .00002136  00000+0  45831-3 0  9990
2 41186  46.9967 219.6391 0001073 248.3890 111.6882 14.61782788480066
ORBCOMM FM108           
1 41187U 15081J   24344.88369552  .00003237  00000+0  74067-3 0  9990
2 41187  47.0044 280.5877 0002005 152.6140 207.4851 14.57575273479176
ORBCOMM FM117           
1 41188U 15081K   24344.30203337  .00003036  00000+0  69714-3 0  9996
2 41188  47.0006 282.1632 0002355 168.0215 192.0726 14.57572337479138
ORBCOMM FM116           
1 41189U 15081L   24344.77148378  .00002561  00000+0  59399-3 0  9991
2 41189  47.0025   9.7878 0003018 267.5903  92.4637 14.57551876478016
